{"type": "FeatureCollection", "features": [ {"type": "Feature", "properties": {"norad_id": 33939, "name": "COSMOS 2251 DEB", "group": "cosmos-2251-debris", "lat": 61.7217507971803, "lon": 82.31595391378293, "alt_km": 555.6175111712073, "timestamp": "2025-12-27T17:24:57.800771+00:00", "meta": {"OBJECT_NAME": "COSMOS 2251 DEB", "OBJECT_ID": "1993-036EU", "EPOCH": "2025-12-27T05:55:26.093856", "MEAN_MOTION": 15.00911822, "ECCENTRICITY": 0.0005287, "INCLINATION": 74.0061, "RA_OF_ASC_NODE": 51.0713, "ARG_OF_PERICENTER": 10.4454, "MEAN_ANOMALY": 349.6842, "EPHEMERIS_TYPE": 0, "CLASSIFICATION_TYPE": "U", "NORAD_CAT_ID": 33939, "ELEMENT_SET_NO": 999, "REV_AT_EPOCH": 88970, "BSTAR": 0.0030802, "MEAN_MOTION_DOT": 0.00039435, "MEAN_MOTION_DDOT": 0}, "tle": {"line1": "1 33939U 93036EU  25361.24682979  .00039435  00000+0  30802-2 0  9990", "line2": "2 33939  74.0061  51.0713 0005287  10.4454 349.6842 15.00911822889701"}}, "geometry": {"type": "Point", "coordinates": [82.31595391378293, 61.7217507971803]}}, {"type": "Feature", "properties": {"norad_id": 33940, "name": "COSMOS 2251 DEB", "group": "cosmos-2251-debris", "lat": 58.40847502415308, "lon": -92.77111402974758, "alt_km": 689.0672388053681, "timestamp": "2025-12-27T17:24:57.800782+00:00", "meta": {"OBJECT_NAME": "COSMOS 2251 DEB", "OBJECT_ID": "1993-036EV", "EPOCH": "2025-12-27T10:37:21.688896", "MEAN_MOTION": 14.58940933, "ECCENTRICITY": 0.0010534, "INCLINATION": 74.0399, "RA_OF_ASC_NODE": 115.4996, "ARG_OF_PERICENTER": 196.4007, "MEAN_ANOMALY": 235.235, "EPHEMERIS_TYPE": 0, "CLASSIFICATION_TYPE": "U", "NORAD_CAT_ID": 33940, "ELEMENT_SET_NO": 999, "REV_AT_EPOCH": 88808, "BSTAR": 0.0012792, "MEAN_MOTION_DOT": 5.979e-05, "MEAN_MOTION_DDOT": 0}, "tle": {"line1": "1 33940U 93036EV  25361.44261214  .00005979  00000+0  12792-2 0  9993", "line2": "2 33940  74.0399 115.4996 0010534 196.4007 235.2350 14.58940933888086"}}, "geometry": {"type": "Point", "coordinates": [-92.77111402974758, 58.40847502415308]}}, {"type": "Feature", "properties": {"norad_id": 33942, "name": "COSMOS 2251 DEB", "group": "cosmos-2251-debris", "lat": -74.02563899579626, "lon": 157.61782095549904, "alt_km": 764.0578706610277, "timestamp": "2025-12-27T17:24:57.800792+00:00", "meta": {"OBJECT_NAME": "COSMOS 2251 DEB", "OBJECT_ID": "1993-036EX", "EPOCH": "2025-12-27T10:00:38.157120", "MEAN_MOTION": 14.38008214, "ECCENTRICITY": 0.0020887, "INCLINATION": 74.0358, "RA_OF_ASC_NODE": 247.7984, "ARG_OF_PERICENTER": 328.47, "MEAN_ANOMALY": 145.1163, "EPHEMERIS_TYPE": 0, "CLASSIFICATION_TYPE": "U", "NORAD_CAT_ID": 33942, "ELEMENT_SET_NO": 999, "REV_AT_EPOCH": 88345, "BSTAR": 0.00021026, "MEAN_MOTION_DOT": 6.11e-06, "MEAN_MOTION_DDOT": 0}, "tle": {"line1": "1 33942U 93036EX  25361.41710830  .00000611  00000+0  21026-3 0  9994", "line2": "2 33942  74.0358 247.7984 0020887 328.4700 145.1163 14.38008214883450"}}, "geometry": {"type": "Point", "coordinates": [157.61782095549904, -74.02563899579626]}}, {"type": "Feature", "properties": {"norad_id": 33944, "name": "COSMOS 2251 DEB", "group": "cosmos-2251-debris", "lat": 63.322876228988235, "lon": 66.637500292792, "alt_km": 765.9822242441687, "timestamp": "2025-12-27T17:24:57.800802+00:00", "meta": {"OBJECT_NAME": "COSMOS 2251 DEB", "OBJECT_ID": "1993-036EZ", "EPOCH": "2025-12-27T12:41:39.863040", "MEAN_MOTION": 14.37378179, "ECCENTRICITY": 0.0112858, "INCLINATION": 74.0407, "RA_OF_ASC_NODE": 281.7172, "ARG_OF_PERICENTER": 17.5874, "MEAN_ANOMALY": 155.1302, "EPHEMERIS_TYPE": 0, "CLASSIFICATION_TYPE": "U", "NORAD_CAT_ID": 33944, "ELEMENT_SET_NO": 999, "REV_AT_EPOCH": 88240, "BSTAR": 0.00042105, "MEAN_MOTION_DOT": 1.326e-05, "MEAN_MOTION_DDOT": 0}, "tle": {"line1": "1 33944U 93036EZ  25361.52893360  .00001326  00000+0  42105-3 0  9993", "line2": "2 33944  74.0407 281.7172 0112858  17.5874 155.1302 14.37378179882401"}}, "geometry": {"type": "Point", "coordinates": [66.637500292792, 63.322876228988235]}}, {"type": "Feature", "properties": {"norad_id": 33945, "name": "COSMOS 2251 DEB", "group": "cosmos-2251-debris", "lat": 60.55339935034791, "lon": 68.32777590338785, "alt_km": 776.5727070974917, "timestamp": "2025-12-27T17:24:57.800813+00:00", "meta": {"OBJECT_NAME": "COSMOS 2251 DEB", "OBJECT_ID": "1993-036FA", "EPOCH": "2025-12-27T11:51:43.962048", "MEAN_MOTION": 14.34612689, "ECCENTRICITY": 0.0022556, "INCLINATION": 74.0302, "RA_OF_ASC_NODE": 279.2319, "ARG_OF_PERICENTER": 1.8091, "MEAN_ANOMALY": 358.3138, "EPHEMERIS_TYPE": 0, "CLASSIFICATION_TYPE": "U", "NORAD_CAT_ID": 33945, "ELEMENT_SET_NO": 999, "REV_AT_EPOCH": 88227, "BSTAR": 0.00015143, "MEAN_MOTION_DOT": 4.03e-06, "MEAN_MOTION_DDOT": 0}, "tle": {"line1": "1 33945U 93036FA  25361.49425882  .00000403  00000+0  15143-3 0  9997", "line2": "2 33945  74.0302 279.2319 0022556   1.8091 358.3138 14.34612689882276"}}, "geometry": {"type": "Point", "coordinates": [68.32777590338785, 60.55339935034791]}}, {"type": "Feature", "properties": {"norad_id": 33948, "name": "COSMOS 2251 DEB", "group": "cosmos-2251-debris", "lat": 18.55863406018167, "lon": -76.84606301757898, "alt_km": 758.2734550913437, "timestamp": "2025-12-27T17:24:57.800824+00:00", "meta": {"OBJECT_NAME": "COSMOS 2251 DEB", "OBJECT_ID": "1993-036FD", "EPOCH": "2025-12-27T03:56:51.236160", "MEAN_MOTION": 14.35646381, "ECCENTRICITY": 0.00233674, "INCLINATION": 74.036, "RA_OF_ASC_NODE": 278.6683, "ARG_OF_PERICENTER": 351.1481, "MEAN_ANOMALY": 8.9256, "EPHEMERIS_TYPE": 0, "CLASSIFICATION_TYPE": "U", "NORAD_CAT_ID": 33948, "ELEMENT_SET_NO": 999, "REV_AT_EPOCH": 88230, "BSTAR": 0.00022294756, "MEAN_MOTION_DOT": 6.19e-06, "MEAN_MOTION_DDOT": 0}, "tle": {"line1": "1 33948U 93036FD  25361.16448190  .00000619  00000+0  22295-3 0  9996", "line2": "2 33948  74.0360 278.6683 0023367 351.1481   8.9256 14.35646381882305"}}, "geometry": {"type": "Point", "coordinates": [-76.84606301757898, 18.55863406018167]}}, {"type": "Feature", "properties": {"norad_id": 33971, "name": "COSMOS 2251 DEB", "group": "cosmos-2251-debris", "lat": -49.22691366673612, "lon": -153.3659667760299, "alt_km": 752.7509085840165, "timestamp": "2025-12-27T17:24:57.800834+00:00", "meta": {"OBJECT_NAME": "COSMOS 2251 DEB", "OBJECT_ID": "1993-036FE", "EPOCH": "2025-12-27T10:07:27.998976", "MEAN_MOTION": 14.39749798, "ECCENTRICITY": 0.0019078, "INCLINATION": 74.0235, "RA_OF_ASC_NODE": 226.5986, "ARG_OF_PERICENTER": 324.8108, "MEAN_ANOMALY": 209.2693, "EPHEMERIS_TYPE": 0, "CLASSIFICATION_TYPE": "U", "NORAD_CAT_ID": 33971, "ELEMENT_SET_NO": 999, "REV_AT_EPOCH": 88350, "BSTAR": 0.00026485, "MEAN_MOTION_DOT": 8.05e-06, "MEAN_MOTION_DDOT": 0}, "tle": {"line1": "1 33971U 93036FE  25361.42185184  .00000805  00000+0  26485-3 0  9994", "line2": "2 33971  74.0235 226.5986 0019078 324.8108 209.2693 14.39749798883501"}}, "geometry": {"type": "Point", "coordinates": [-153.3659667760299, -49.22691366673612]}}, {"type": "Feature", "properties": {"norad_id": 33972, "name": "COSMOS 2251 DEB", "group": "cosmos-2251-debris", "lat": 57.339949334832674, "lon": -170.33374255127515, "alt_km": 769.4812509604944, "timestamp": "2025-12-27T17:24:57.800845+00:00", "meta": {"OBJECT_NAME": "COSMOS 2251 DEB", "OBJECT_ID": "1993-036FF", "EPOCH": "2025-12-26T21:46:53.946048", "MEAN_MOTION": 14.36338237, "ECCENTRICITY": 0.012408, "INCLINATION": 73.9944, "RA_OF_ASC_NODE": 164.5705, "ARG_OF_PERICENTER": 329.1123, "MEAN_ANOMALY": 182.105, "EPHEMERIS_TYPE": 0, "CLASSIFICATION_TYPE": "U", "NORAD_CAT_ID": 33972, "ELEMENT_SET_NO": 999, "REV_AT_EPOCH": 87277, "BSTAR": 0.0017751, "MEAN_MOTION_DOT": 5.646e-05, "MEAN_MOTION_DDOT": 0}, "tle": {"line1": "1 33972U 93036FF  25360.90756882  .00005646  00000+0  17751-2 0  9999", "line2": "2 33972  73.9944 164.5705 0124080 329.1123 182.1050 14.36338237872774"}}, "geometry": {"type": "Point", "coordinates": [-170.33374255127515, 57.339949334832674]}}, {"type": "Feature", "properties": {"norad_id": 33973, "name": "COSMOS 2251 DEB", "group": "cosmos-2251-debris", "lat": -54.284193593816404, "lon": 51.4067951263018, "alt_km": 726.4192598081772, "timestamp": "2025-12-27T17:24:57.800855+00:00", "meta": {"OBJECT_NAME": "COSMOS 2251 DEB", "OBJECT_ID": "1993-036FG", "EPOCH": "2025-12-27T09:45:28.259712", "MEAN_MOTION": 14.45407015, "ECCENTRICITY": 0.0047365, "INCLINATION": 74.0087, "RA_OF_ASC_NODE": 75.5085, "ARG_OF_PERICENTER": 251.2545, "MEAN_ANOMALY": 191.0411, "EPHEMERIS_TYPE": 0, "CLASSIFICATION_TYPE": "U", "NORAD_CAT_ID": 33973, "ELEMENT_SET_NO": 999, "REV_AT_EPOCH": 88812, "BSTAR": 0.00016834, "MEAN_MOTION_DOT": 5.72e-06, "MEAN_MOTION_DDOT": 0}, "tle": {"line1": "1 33973U 93036FG  25361.40657708  .00000572  00000+0  16834-3 0  9998", "line2": "2 33973  74.0087  75.5085 0047365 251.2545 191.0411 14.45407015888127"}}, "geometry": {"type": "Point", "coordinates": [51.4067951263018, -54.284193593816404]}}, {"type": "Feature", "properties": {"norad_id": 33975, "name": "COSMOS 2251 DEB", "group": "cosmos-2251-debris", "lat": -12.978161336916441, "lon": 54.26890387136767, "alt_km": 1024.0743110934036, "timestamp": "2025-12-27T17:24:57.800866+00:00", "meta": {"OBJECT_NAME": "COSMOS 2251 DEB", "OBJECT_ID": "1993-036FJ", "EPOCH": "2025-12-27T12:20:23.975232", "MEAN_MOTION": 14.00553511, "ECCENTRICITY": 0.0190707, "INCLINATION": 73.8015, "RA_OF_ASC_NODE": 58.4818, "ARG_OF_PERICENTER": 189.0767, "MEAN_ANOMALY": 170.6904, "EPHEMERIS_TYPE": 0, "CLASSIFICATION_TYPE": "U", "NORAD_CAT_ID": 33975, "ELEMENT_SET_NO": 999, "REV_AT_EPOCH": 86036, "BSTAR": 0.00052225, "MEAN_MOTION_DOT": 8.83e-06, "MEAN_MOTION_DDOT": 0}, "tle": {"line1": "1 33975U 93036FJ  25361.51416638  .00000883  00000+0  52225-3 0  9996", "line2": "2 33975  73.8015  58.4818 0190707 189.0767 170.6904 14.00553511860364"}}, "geometry": {"type": "Point", "coordinates": [54.26890387136767, -12.978161336916441]}}]}